IRIDIUM 135             
1 43070U 17083A   26177.15170331  .00000010  00000+0 -36695-5 0  9992
2 43070  86.3970 318.2671 0002070  92.6962 267.4471 14.34217616445436
IRIDIUM 138             
1 43071U 17083B   26176.89799987  .00000055  00000+0  12575-4 0  9995
2 43071  86.3985 318.0698 0002230  87.2056 272.9395 14.34217839445389
IRIDIUM 116             
1 43072U 17083C   26176.93605506  .00000141  00000+0  43431-4 0  9995
2 43072  86.3971 318.3429 0002143 101.7208 258.4229 14.34217970445420
IRIDIUM 130             
1 43073U 17083D   26176.90434046  .00000042  00000+0  81001-5 0  9998
2 43073  86.3978 318.6322 0001993  96.4120 263.7302 14.34216760445368
IRIDIUM 151             
1 43074U 17083E   26177.29758306  .00000048  00000+0  10042-4 0  9992
2 43074  86.3972 318.2496 0002193  93.8989 266.2457 14.34217799445449
IRIDIUM 134             
1 43075U 17083F   26176.91702700  .00000128  00000+0  38796-4 0  9993
2 43075  86.3974 318.4169 0002132  93.9759 266.1681 14.34218243445353
IRIDIUM 137             
1 43076U 17083G   26177.13901881 -.00000017  00000+0 -13138-4 0  9992
2 43076  86.3974 318.4173 0002376 102.4622 257.6840 14.34217363445459
IRIDIUM 141             
1 43077U 17083H   26176.92337000  .00000039  00000+0  68540-5 0  9995
2 43077  86.3970 318.3373 0002204  91.3549 268.7899 14.34217791445420
IRIDIUM 153             
1 43078U 17083J   26177.29416010 -.00000011  00000+0 -10991-4 0  9994
2 43078  86.3964 286.6633 0002086  90.8333 269.3101 14.34217333446586
IRIDIUM 131             
1 43079U 17083K   26176.91068492  .00000009  00000+0 -37165-5 0  9999
2 43079  86.3973 318.5294 0002140  92.4751 267.6690 14.34217302445352
IRIDIUM 144             
1 43249U 18030A   26176.74234878  .00000191  00000+0  61192-4 0  9992
2 43249  86.3964 286.8228 0002221  98.4361 261.7087 14.34220023431363
IRIDIUM 149             
1 43250U 18030B   26177.30684539  .00000018  00000+0 -80527-6 0  9994
2 43250  86.3962 286.5539 0002183  93.9359 266.2087 14.34217575431468
IRIDIUM 157             
1 43251U 18030C   26177.25610432 -.00000009  00000+0 -10260-4 0  9996
2 43251  86.3964 286.6284 0002159  94.8431 265.3011 14.34217508431433
IRIDIUM 140             
1 43252U 18030D   26177.27513097  .00000188  00000+0  60229-4 0  9994
2 43252  86.3964 286.6329 0002148  95.2297 264.9144 14.34217543431494
IRIDIUM 145             
1 43253U 18030E   26177.26244625  .00000090  00000+0  24945-4 0  9999
2 43253  86.3960 286.6103 0002211 102.9509 257.1934 14.34218189431425
IRIDIUM 146             
1 43254U 18030F   26177.24341922  .00000079  00000+0  21126-4 0  9991
2 43254  86.3963 286.6305 0002251  97.9174 262.2277 14.34217789431431
IRIDIUM 148             
1 43255U 18030G   26177.28147488  .00000011  00000+0 -31176-5 0  9991
2 43255  86.3964 286.6581 0002213  96.0288 264.1160 14.34217664431471
IRIDIUM 142             
1 43256U 18030H   26177.24976179  .00000020  00000+0 -73337-7 0  9992
2 43256  86.3960 286.5599 0002272  99.5669 260.5784 14.34217763431430
IRIDIUM 150             
1 43257U 18030J   26177.28781671  .00000184  00000+0  58771-4 0  9990
2 43257  86.3965 286.6605 0002172  95.6088 264.5355 14.34218314431460
IRIDIUM 143             
1 43258U 18030K   26177.26878937  .00000250  00000+0  82331-4 0  9994
2 43258  86.3967 286.7613 0002211  98.0509 262.0938 14.34218217431396
IRIDIUM 161             
1 43478U 18047C   26177.25132946  .00000290  00000+0  80182-4 0  9994
2 43478  86.4480  84.6815 0002500  81.2663 278.8821 14.43283169426440
IRIDIUM 152             
1 43479U 18047D   26177.24150694  .00000239  00000+0  78236-4 0  9994
2 43479  86.3956  84.5469 0002317  82.7009 277.4451 14.34218103423782
IRIDIUM 147             
1 43480U 18047E   26177.24785009  .00000000  00000+0 -69891-5 0  9995
2 43480  86.3955  84.5494 0002024  87.1614 272.9813 14.34217531423783
IRIDIUM 110             
1 43481U 18047F   26177.25419344 -.00000028  00000+0 -17065-4 0  9999
2 43481  86.3957  84.6389 0002357  78.4594 281.6866 14.34217248423778
IRIDIUM 162             
1 43482U 18047G   26177.24503249  .00000317  00000+0  88227-4 0  9994
2 43482  86.4481  84.5751 0002275  83.8977 276.2483 14.43278811426432
IRIDIUM 160             
1 43569U 18061A   26176.71164925  .00000032  00000+0  44927-5 0  9995
2 43569  86.3956  53.2329 0002264  85.7581 274.3873 14.34217757414596
IRIDIUM 166             
1 43570U 18061B   26177.15563017 -.00000008  00000+0 -10040-4 0  9994
2 43570  86.3949  52.9973 0002026  88.1146 272.0282 14.34217454414684
IRIDIUM 158             
1 43571U 18061C   26177.12391706  .00000142  00000+0  43695-4 0  9995
2 43571  86.3952  53.0207 0002174  83.8382 276.3061 14.34217777414645
IRIDIUM 165             
1 43572U 18061D   26177.14928731  .00000111  00000+0  32555-4 0  9991
2 43572  86.3955  53.0566 0002137  89.6697 270.4744 14.34217566414671
IRIDIUM 155             
1 43573U 18061E   26177.18100048  .00000061  00000+0  14860-4 0  9992
2 43573  86.3952  52.9120 0002031  84.3619 275.7809 14.34217929414642
