OBJECT_NAME,OBJECT_ID,EPOCH,MEAN_MOTION,ECCENTRICITY,INCLINATION,RA_OF_ASC_NODE,ARG_OF_PERICENTER,MEAN_ANOMALY,EPHEMERIS_TYPE,CLASSIFICATION_TYPE,NORAD_CAT_ID,ELEMENT_SET_NO,REV_AT_EPOCH,BSTAR,MEAN_MOTION_DOT,MEAN_MOTION_DDOT
IRIDIUM 135,2017-083A,2026-06-26T03:38:27.165984,14.34217616,.00020707,86.3970,318.2671,92.6962,267.4471,0,U,43070,999,44543,-.3669453E-5,.1E-6,0
IRIDIUM 138,2017-083B,2026-06-25T21:33:07.188768,14.34217839,.00022309,86.3985,318.0698,87.2056,272.9395,0,U,43071,999,44538,.1257463E-4,.55E-6,0
IRIDIUM 116,2017-083C,2026-06-25T22:27:55.157184,14.34217970,.00021432,86.3971,318.3429,101.7208,258.4229,0,U,43072,999,44542,.43431353E-4,.141E-5,0
IRIDIUM 130,2017-083D,2026-06-25T21:42:15.015744,14.34216760,.00019938,86.3978,318.6322,96.4120,263.7302,0,U,43073,999,44536,.8100084E-5,.42E-6,0
IRIDIUM 151,2017-083E,2026-06-26T07:08:31.176384,14.34217799,.00021932,86.3972,318.2496,93.8989,266.2457,0,U,43074,999,44544,.10042399E-4,.48E-6,0
IRIDIUM 134,2017-083F,2026-06-25T22:00:31.132800,14.34218243,.00021326,86.3974,318.4169,93.9759,266.1681,0,U,43075,999,44535,.3879613E-4,.128E-5,0
IRIDIUM 137,2017-083G,2026-06-26T03:20:11.225184,14.34217363,.00023765,86.3974,318.4173,102.4622,257.6840,0,U,43076,999,44545,-.13137897E-4,-.17E-6,0
IRIDIUM 141,2017-083H,2026-06-25T22:09:39.168000,14.34217791,.00022042,86.3970,318.3373,91.3549,268.7899,0,U,43077,999,44542,.685398E-5,.39E-6,0
IRIDIUM 153,2017-083J,2026-06-26T07:03:35.432640,14.34217333,.00020865,86.3964,286.6633,90.8333,269.3101,0,U,43078,999,44658,-.10991026E-4,-.11E-6,0
IRIDIUM 131,2017-083K,2026-06-25T21:51:23.177088,14.34217302,.00021408,86.3973,318.5294,92.4751,267.6690,0,U,43079,999,44535,-.3716456E-5,.9E-7,0
IRIDIUM 144,2018-030A,2026-06-25T17:48:58.934592,14.34220023,.00022219,86.3964,286.8228,98.4361,261.7087,0,U,43249,999,43136,.61191827E-4,.191E-5,0
IRIDIUM 149,2018-030B,2026-06-26T07:21:51.441696,14.34217575,.00021834,86.3962,286.5539,93.9359,266.2087,0,U,43250,999,43146,-.805273E-6,.18E-6,0
IRIDIUM 157,2018-030C,2026-06-26T06:08:47.413248,14.34217508,.00021593,86.3964,286.6284,94.8431,265.3011,0,U,43251,999,43143,-.10259908E-4,-.9E-7,0
IRIDIUM 140,2018-030D,2026-06-26T06:36:11.315808,14.34217543,.00021484,86.3964,286.6329,95.2297,264.9144,0,U,43252,999,43149,.60228968E-4,.188E-5,0
IRIDIUM 145,2018-030E,2026-06-26T06:17:55.356000,14.34218189,.00022113,86.3960,286.6103,102.9509,257.1934,0,U,43253,999,43142,.24945458E-4,.9E-6,0
IRIDIUM 146,2018-030F,2026-06-26T05:50:31.420608,14.34217789,.00022516,86.3963,286.6305,97.9174,262.2277,0,U,43254,999,43143,.21125889E-4,.79E-6,0
IRIDIUM 148,2018-030G,2026-06-26T06:45:19.429632,14.34217664,.00022139,86.3964,286.6581,96.0288,264.1160,0,U,43255,999,43147,-.3117576E-5,.11E-6,0
IRIDIUM 142,2018-030H,2026-06-26T05:59:39.418656,14.34217763,.00022727,86.3960,286.5599,99.5669,260.5784,0,U,43256,999,43143,-.73337E-7,.2E-6,0
IRIDIUM 150,2018-030J,2026-06-26T06:54:27.363744,14.34218314,.00021729,86.3965,286.6605,95.6088,264.5355,0,U,43257,999,43146,.58771491E-4,.184E-5,0
IRIDIUM 143,2018-030K,2026-06-26T06:27:03.401568,14.34218217,.00022114,86.3967,286.7613,98.0509,262.0938,0,U,43258,999,43139,.82331422E-4,.25E-5,0
IRIDIUM 161,2018-047C,2026-06-26T06:01:54.865344,14.43283169,.00025003,86.4480,84.6815,81.2663,278.8821,0,U,43478,999,42644,.80182144E-4,.29E-5,0
IRIDIUM 152,2018-047D,2026-06-26T05:47:46.199616,14.34218103,.0002317,86.3956,84.5469,82.7009,277.4451,0,U,43479,999,42378,.78235986E-4,.239E-5,0
IRIDIUM 147,2018-047E,2026-06-26T05:56:54.247776,14.34217531,.00020245,86.3955,84.5494,87.1614,272.9813,0,U,43480,999,42378,-.6989072E-5,0,0
IRIDIUM 110,2018-047F,2026-06-26T06:06:02.313216,14.34217248,.00023579,86.3957,84.6389,78.4594,281.6866,0,U,43481,999,42377,-.17065385E-4,-.28E-6,0
IRIDIUM 162,2018-047G,2026-06-26T05:52:50.807136,14.43278811,.00022752,86.4481,84.5751,83.8977,276.2483,0,U,43482,999,42643,.88226716E-4,.317E-5,0
IRIDIUM 160,2018-061A,2026-06-25T17:04:46.495200,14.34217757,.00022643,86.3956,53.2329,85.7581,274.3873,0,U,43569,999,41459,.4492706E-5,.32E-6,0
IRIDIUM 166,2018-061B,2026-06-26T03:44:06.446688,14.34217454,.00020267,86.3949,52.9973,88.1146,272.0282,0,U,43570,999,41468,-.10039683E-4,-.8E-7,0
IRIDIUM 158,2018-061C,2026-06-26T02:58:26.433984,14.34217777,.00021744,86.3952,53.0207,83.8382,276.3061,0,U,43571,999,41464,.4369526E-4,.142E-5,0
IRIDIUM 165,2018-061D,2026-06-26T03:34:58.423584,14.34217566,.00021379,86.3955,53.0566,89.6697,270.4744,0,U,43572,999,41467,.32554632E-4,.111E-5,0
IRIDIUM 155,2018-061E,2026-06-26T04:20:38.441472,14.34217929,.0002031,86.3952,52.9120,84.3619,275.7809,0,U,43573,999,41464,.14860106E-4,.61E-6,0
